[{"OBJECT_NAME":"STARLINK-34587","OBJECT_ID":"2025-144M","EPOCH":"2026-03-09T14:02:44.943360","MEAN_MOTION":15.30212261,"ECCENTRICITY":6.93e-5,"INCLINATION":53.1587,"RA_OF_ASC_NODE":181.6896,"ARG_OF_PERICENTER":74.6294,"MEAN_ANOMALY":285.4784,"EPHEMERIS_TYPE":0,"CLASSIFICATION_TYPE":"U","NORAD_CAT_ID":64735,"ELEMENT_SET_NO":999,"REV_AT_EPOCH":3964,"BSTAR":-0.00014419,"MEAN_MOTION_DOT":-4.628e-5,"MEAN_MOTION_DDOT":0},{"OBJECT_NAME":"ZK-1A R\/B","OBJECT_ID":"2025-256C","EPOCH":"2026-03-09T22:50:51.933408","MEAN_MOTION":15.05195406,"ECCENTRICITY":0.02187008,"INCLINATION":98.3035,"RA_OF_ASC_NODE":148.2706,"ARG_OF_PERICENTER":314.6999,"MEAN_ANOMALY":43.659,"EPHEMERIS_TYPE":0,"CLASSIFICATION_TYPE":"U","NORAD_CAT_ID":66411,"ELEMENT_SET_NO":999,"REV_AT_EPOCH":1815,"BSTAR":0.00055908382,"MEAN_MOTION_DOT":0.00013638,"MEAN_MOTION_DDOT":0}]
